ONEWEB-0721             
1 56725U 23068R   26178.95914956  .00000016  00000+0  31034-5 0  9998
2 56725  86.6763  82.0784 0001851  78.0904 282.0436 13.22470168159368
ONEWEB-0015             
1 61594U 24188A   26178.83841846  .00000268  00000+0  72062-3 0  9999
2 61594  87.8879  18.9722 0001946  71.2236 288.9103 13.11418683 85857
ONEWEB-0687             
1 61595U 24188B   26178.93778555  .00000018  00000+0  12958-4 0  9999
2 61595  87.9126   3.7369 0002295  82.3527 277.7865 13.17649055 87316
ONEWEB-0688             
1 61596U 24188C   26178.89053169  .00000036  00000+0  60151-4 0  9990
2 61596  87.9126   3.7462 0002203  56.1002 304.0339 13.17649862 87302
ONEWEB-0689             
1 61597U 24188D   26178.94861748  .00000064  00000+0  14505-3 0  9999
2 61597  87.8893  18.9097 0002131  89.6054 270.5319 13.11414132 85861
ONEWEB-0690             
1 61598U 24188E   26178.80619806 -.00000376  00000+0 -10977-2 0  9997
2 61598  87.8888  18.9493 0001193  92.4631 267.6633 13.11415912 86028
ONEWEB-0691             
1 61599U 24188F   26178.57221990 -.00000277  00000+0 -81806-3 0  9995
2 61599  87.8898  18.9055 0001990  77.4603 282.6747 13.11416696 85843
ONEWEB-0692             
1 61600U 24188G   26178.82146030 -.00000414  00000+0 -12032-2 0  9994
2 61600  87.8879  18.9673 0002279 106.4898 253.6481 13.11417860 85860
ONEWEB-0693             
1 61601U 24188H   26178.75047504  .00000044  00000+0  80047-4 0  9993
2 61601  87.9124   3.7936 0001077  86.4002 273.7253 13.17649175 87277
ONEWEB-0695             
1 61602U 24188J   26178.95031975  .00000012  00000+0 -19645-5 0  9994
2 61602  87.8878  18.9334 0002286  96.2218 263.9171 13.11415729 85878
ONEWEB-0697             
1 61603U 24188K   26178.82993967 -.00000123  00000+0 -38158-3 0  9991
2 61603  87.8882  18.9478 0002152 107.6587 252.4776 13.11418857 85847
ONEWEB-0698             
1 61604U 24188L   26178.80789348 -.00000406  00000+0 -11809-2 0  9993
2 61604  87.8877  18.9660 0001574 127.4537 232.6734 13.11416137 85862
ONEWEB-0699             
1 61605U 24188M   26178.82893761  .00000465  00000+0  12968-2 0  9991
2 61605  87.8822  34.1459 0001991 105.3900 254.7447 13.10372458 84705
ONEWEB-0700             
1 61606U 24188N   26178.83064154  .00000346  00000+0  95456-3 0  9991
2 61606  87.8839  34.0563 0002237 100.4530 259.6849 13.10372887 84692
ONEWEB-0701             
1 61607U 24188P   26178.54216557 -.00000460  00000+0 -13538-2 0  9995
2 61607  87.8826  34.2031 0002076 110.1142 250.0209 13.10369969 84668
ONEWEB-0702             
1 61608U 24188Q   26178.54849846  .00000608  00000+0  16795-2 0  9999
2 61608  87.8899  18.9254 0002510 108.5375 251.6026 13.11415841 85844
ONEWEB-0704             
1 61609U 24188R   26178.83572947  .00000070  00000+0  16367-3 0  9996
2 61609  87.8827  34.1341 0002591 104.6802 255.4612 13.10372961 84682
ONEWEB-0705             
1 61610U 24188S   26178.84081664 -.00000171  00000+0 -52489-3 0  9999
2 61610  87.8828  34.1389 0002824  89.0115 271.1336 13.10368555 76851
ONEWEB-0706             
1 61611U 24188T   26178.82556318  .00000682  00000+0  19180-2 0  9996
2 61611  87.8825  34.1462 0002336  95.4741 264.6653 13.10373027 84774
ONEWEB-0707             
1 61612U 24188U   26178.83233872  .00000282  00000+0  77021-3 0  9990
2 61612  87.8829  34.1395 0002334  95.6321 264.5072 13.10373183 84719
ONEWEB-0708             
1 61613U 24188V   26178.85101818 -.00000569  00000+0 -16663-2 0  9991
2 61613  87.8820  34.1532 0002299  77.9455 282.1930 13.10375428 84695
