OBJECT_NAME,OBJECT_ID,EPOCH,MEAN_MOTION,ECCENTRICITY,INCLINATION,RA_OF_ASC_NODE,ARG_OF_PERICENTER,MEAN_ANOMALY,EPHEMERIS_TYPE,CLASSIFICATION_TYPE,NORAD_CAT_ID,ELEMENT_SET_NO,REV_AT_EPOCH,BSTAR,MEAN_MOTION_DOT,MEAN_MOTION_DDOT
ONEWEB-0721,2023-068R,2026-06-27T23:01:10.521984,13.22470168,.00018514,86.6763,82.0784,78.0904,282.0436,0,U,56725,999,15936,.3103398E-5,.16E-6,0
ONEWEB-0015,2024-188A,2026-06-27T20:07:19.354944,13.11418683,.00019466,87.8879,18.9722,71.2236,288.9103,0,U,61594,999,8585,.72062147E-3,.268E-5,0
ONEWEB-0687,2024-188B,2026-06-27T22:30:24.671520,13.17649055,.00022955,87.9126,3.7369,82.3527,277.7865,0,U,61595,999,8731,.12957856E-4,.18E-6,0
ONEWEB-0688,2024-188C,2026-06-27T21:22:21.938016,13.17649862,.00022033,87.9126,3.7462,56.1002,304.0339,0,U,61596,999,8730,.60150855E-4,.36E-6,0
ONEWEB-0689,2024-188D,2026-06-27T22:46:00.550272,13.11414132,.00021312,87.8893,18.9097,89.6054,270.5319,0,U,61597,999,8586,.14504536E-3,.64E-6,0
ONEWEB-0690,2024-188E,2026-06-27T19:20:55.512384,13.11415912,.00011933,87.8888,18.9493,92.4631,267.6633,0,U,61598,999,8602,-.1097738E-2,-.376E-5,0
ONEWEB-0691,2024-188F,2026-06-27T13:43:59.799360,13.11416696,.00019909,87.8898,18.9055,77.4603,282.6747,0,U,61599,999,8584,-.81806324E-3,-.277E-5,0
ONEWEB-0692,2024-188G,2026-06-27T19:42:54.169920,13.11417860,.00022797,87.8879,18.9673,106.4898,253.6481,0,U,61600,999,8586,-.1203192E-2,-.414E-5,0
ONEWEB-0693,2024-188H,2026-06-27T18:00:41.043456,13.17649175,.00010772,87.9124,3.7936,86.4002,273.7253,0,U,61601,999,8727,.80047117E-4,.44E-6,0
ONEWEB-0695,2024-188J,2026-06-27T22:48:27.626400,13.11415729,.00022863,87.8878,18.9334,96.2218,263.9171,0,U,61602,999,8587,-.1964539E-5,.12E-6,0
ONEWEB-0697,2024-188K,2026-06-27T19:55:06.787488,13.11418857,.00021523,87.8882,18.9478,107.6587,252.4776,0,U,61603,999,8584,-.38158029E-3,-.123E-5,0
ONEWEB-0698,2024-188L,2026-06-27T19:23:21.996672,13.11416137,.00015744,87.8877,18.9660,127.4537,232.6734,0,U,61604,999,8586,-.11809294E-2,-.406E-5,0
ONEWEB-0699,2024-188M,2026-06-27T19:53:40.209504,13.10372458,.0001991,87.8822,34.1459,105.3900,254.7447,0,U,61605,999,8470,.12967709E-2,.465E-5,0
ONEWEB-0700,2024-188N,2026-06-27T19:56:07.429056,13.10372887,.00022379,87.8839,34.0563,100.4530,259.6849,0,U,61606,999,8469,.95455802E-3,.346E-5,0
ONEWEB-0701,2024-188P,2026-06-27T13:00:43.105248,13.10369969,.0002076,87.8826,34.2031,110.1142,250.0209,0,U,61607,999,8466,-.13537914E-2,-.46E-5,0
ONEWEB-0702,2024-188Q,2026-06-27T13:09:50.266944,13.11415841,.00025104,87.8899,18.9254,108.5375,251.6026,0,U,61608,999,8584,.16795213E-2,.608E-5,0
ONEWEB-0704,2024-188R,2026-06-27T20:03:27.026208,13.10372961,.00025918,87.8827,34.1341,104.6802,255.4612,0,U,61609,999,8468,.16367427E-3,.7E-6,0
ONEWEB-0705,2024-188S,2026-06-27T20:10:46.557696,13.10368555,.00028244,87.8828,34.1389,89.0115,271.1336,0,U,61610,999,7685,-.52489066E-3,-.171E-5,0
ONEWEB-0706,2024-188T,2026-06-27T19:48:48.658752,13.10373027,.00023363,87.8825,34.1462,95.4741,264.6653,0,U,61611,999,8477,.19179673E-2,.682E-5,0
ONEWEB-0707,2024-188U,2026-06-27T19:58:34.065408,13.10373183,.00023345,87.8829,34.1395,95.6321,264.5072,0,U,61612,999,8471,.77021312E-3,.282E-5,0
ONEWEB-0708,2024-188V,2026-06-27T20:25:27.970752,13.10375428,.00022996,87.8820,34.1532,77.9455,282.1930,0,U,61613,999,8469,-.16662627E-2,-.569E-5,0
